{
    "links": {
        "self": "http://www.neowsapp.com/rest/v1/neo/3989274?api_key=iIulBulltgU6a56xZRHN4H3l9WmuAYTsLGpBGhQ2"
    },
    "id": "3989274",
    "neo_reference_id": "3989274",
    "name": "(2020 BE12)",
    "designation": "2020 BE12",
    "nasa_jpl_url": "http://ssd.jpl.nasa.gov/sbdb.cgi?sstr=3989274",
    "absolute_magnitude_h": 24.511,
    "estimated_diameter": {
        "kilometers": {
            "estimated_diameter_min": 0.0332931568,
            "estimated_diameter_max": 0.0744457619
        },
        "meters": {
            "estimated_diameter_min": 33.2931568337,
            "estimated_diameter_max": 74.4457618658
        },
        "miles": {
            "estimated_diameter_min": 0.0206874022,
            "estimated_diameter_max": 0.0462584375
        },
        "feet": {
            "estimated_diameter_min": 109.2295206664,
            "estimated_diameter_max": 244.2446333598
        }
    },
    "is_potentially_hazardous_asteroid": false,
    "close_approach_data": [
        {
            "close_approach_date": "2010-09-16",
            "close_approach_date_full": "2010-Sep-16 05:00",
            "epoch_date_close_approach": 1284613200000,
            "relative_velocity": {
                "kilometers_per_second": "6.1344517108",
                "kilometers_per_hour": "22084.0261587004",
                "miles_per_hour": "13722.1550317769"
            },
            "miss_distance": {
                "astronomical": "1.9971101878",
                "lunar": "776.8758630542",
                "kilometers": "298763430.250179986",
                "miles": "185642987.1777603668"
            },
            "orbiting_body": "Juptr"
        },
        {
            "close_approach_date": "2020-02-12",
            "close_approach_date_full": "2020-Feb-12 20:12",
            "epoch_date_close_approach": 1581538320000,
            "relative_velocity": {
                "kilometers_per_second": "7.4880532359",
                "kilometers_per_hour": "26956.9916490857",
                "miles_per_hour": "16750.0262832889"
            },
            "miss_distance": {
                "astronomical": "0.1179799848",
                "lunar": "45.8942140872",
                "kilometers": "17649554.428712376",
                "miles": "10966924.5789517488"
            },
            "orbiting_body": "Earth"
        },
        {
            "close_approach_date": "2022-01-29",
            "close_approach_date_full": "2022-Jan-29 02:54",
            "epoch_date_close_approach": 1643424840000,
            "relative_velocity": {
                "kilometers_per_second": "3.511868096",
                "kilometers_per_hour": "12642.7251457188",
                "miles_per_hour": "7855.6977440162"
            },
            "miss_distance": {
                "astronomical": "1.2453751928",
                "lunar": "484.4509499992",
                "kilometers": "186305476.193719336",
                "miles": "115764854.8191293968"
            },
            "orbiting_body": "Juptr"
        },
        {
            "close_approach_date": "2033-05-23",
            "close_approach_date_full": "2033-May-23 09:58",
            "epoch_date_close_approach": 2000455080000,
            "relative_velocity": {
                "kilometers_per_second": "5.3035127554",
                "kilometers_per_hour": "19092.6459194414",
                "miles_per_hour": "11863.4276825551"
            },
            "miss_distance": {
                "astronomical": "1.9223080681",
                "lunar": "747.7778384909",
                "kilometers": "287573192.471574947",
                "miles": "178689695.8505383886"
            },
            "orbiting_body": "Juptr"
        }
    ],
    "orbital_data": {
        "orbit_id": "6",
        "orbit_determination_date": "2020-03-17 01:09:09",
        "first_observation_date": "2020-01-18",
        "last_observation_date": "2020-02-22",
        "data_arc_in_days": 35,
        "observations_used": 30,
        "orbit_uncertainty": "6",
        "minimum_orbit_intersection": ".110137",
        "jupiter_tisserand_invariant": "3.276",
        "epoch_osculation": "2459000.5",
        "eccentricity": ".5641404793967125",
        "semi_major_axis": "2.413452728057506",
        "inclination": "5.409007131474522",
        "ascending_node_longitude": "85.1241325475317",
        "orbital_period": "1369.482925898267",
        "perihelion_distance": "1.051926349049841",
        "perihelion_argument": "73.51171088441376",
        "aphelion_distance": "3.774979107065171",
        "perihelion_time": "2458903.992838572323",
        "mean_anomaly": "25.36912104338618",
        "mean_motion": ".2628729378015939",
        "equinox": "J2000",
        "orbit_class": {
            "orbit_class_type": "AMO",
            "orbit_class_description": "Near-Earth asteroid orbits similar to that of 1221 Amor",
            "orbit_class_range": "1.017 AU < q (perihelion) < 1.3 AU"
        }
    },
    "is_sentry_object": false
}